STARLINK-37736          
1 69226U 26115R   26159.23646913  .00206197  00000+0  10472-2 0  9997
2 69226  97.2838 176.2257 0001258 129.3649 230.7731 15.80915312  3274
STARLINK-37737          
1 69227U 26115S   26159.23447353  .00147737  00000+0  75645-3 0  9993
2 69227  97.2840 176.2276 0000724 140.6011 219.5310 15.80891053  3278
STARLINK-37618          
1 69228U 26115T   26159.23082518  .00224734  00000+0  11387-2 0  9997
2 69228  97.2842 176.2327 0001167  87.9672 272.1730 15.80918735  3274
STARLINK-37679          
1 69229U 26115U   26159.23230268  .00231095  00000+0  11701-2 0  9993
2 69229  97.2840 176.2307 0000905  76.1009 284.0360 15.80917988  3274
STARLINK-37746          
1 69230U 26115V   26159.04392742  .00046329  00000+0  24065-3 0  9992
2 69230  97.2839 176.0276 0001113  79.5703 280.5690 15.80877797  3244
STARLINK-37557          
1 69231U 26115W   26159.23068274 -.00216665  00000+0 -11742-2 0  9995
2 69231  97.2845 176.2335 0000422 285.8696  74.2526 15.80527381  3275
STARLINK-37745          
1 69232U 26115X   26159.22660685  .00276863  00000+0  13929-2 0  9992
2 69232  97.2840 176.2389 0000992 102.2027 257.9352 15.80938714  3275
STARLINK-37739          
1 69233U 26115Y   26159.23145975  .00164792  00000+0  84251-3 0  9998
2 69233  97.2841 176.2324 0000591  41.8028 318.3285 15.80878674  3275
STARLINK-37755          
1 69234U 26115Z   26159.25004630 -.00073622  00000+0 -49660-3 0  9991
2 69234  97.2848 176.2370 0001667 105.8747 322.6871 15.75206555  3252
TJS-24                  
1 69235U 26116A   26159.29027339 -.00000216  00000+0  00000+0 0  9997
2 69235   0.0286 245.6488 0000736 174.0877  31.7551  1.00271261   147
STARLINK-37665          
1 69238U 26117A   26159.25004630 -.00678438  00000+0 -34478-2 0  9993
2 69238  53.1583 288.4856 0000795  37.7091 182.2953 15.82449470  2730
STARLINK-37558          
1 69239U 26117B   26159.25004630 -.00499926  00000+0 -25027-2 0  9997
2 69239  53.1582 288.4741 0001009  47.6132 177.8862 15.82328226  2732
STARLINK-37680          
1 69240U 26117C   26159.25004630 -.00985861  00000+0 -51252-2 0  9996
2 69240  53.1583 288.4573 0001236  71.9830 161.4786 15.82730161  2723
STARLINK-37742          
1 69241U 26117D   26159.25004630 -.01972494  00000+0 -10054-1 0  9990
2 69241  53.1578 288.4382 0000665  41.8823 200.9328 15.83734915  2733
STARLINK-37718          
1 69242U 26117E   26159.25004630 -.01976182  00000+0 -99944-2 0  9995
2 69242  53.1579 288.4240 0001026  86.2998 163.2871 15.83899738  2724
STARLINK-37735          
1 69243U 26117F   26159.25004630 -.01569209  00000+0 -81018-2 0  9997
2 69243  53.1580 288.4212 0000950  80.2399 170.6484 15.83258809  2731
STARLINK-37757          
1 69244U 26117G   26159.25004630 -.01966398  00000+0 -98038-2 0  9998
2 69244  53.1578 288.3950 0000733 105.9533 157.4394 15.84183113  2730
STARLINK-37767          
1 69245U 26117H   26159.25004630 -.02041212  00000+0 -97779-2 0  9990
2 69245  53.1569 288.3489 0000619  72.3753 213.3541 15.85129559  2733
STARLINK-35759          
1 69246U 26117J   26159.25004630 -.02059495  00000+0 -98791-2 0  9998
2 69246  53.1569 288.3404 0000794  75.4131 214.2563 15.85129084  2781
STARLINK-37238          
1 69247U 26117K   26159.25004630 -.01989474  00000+0 -88774-2 0  9997
2 69247  53.1565 288.2967 0000561  70.3890 240.2020 15.86487751  2730
STARLINK-37412          
1 69248U 26117L   26159.25004630 -.02005295  00000+0 -86643-2 0  9992
2 69248  53.1563 288.2624 0000714  71.9389 255.3170 15.87158398  2803
STARLINK-37398          
1 69249U 26117M   26159.25004630 -.02026666  00000+0 -88089-2 0  9994
2 69249  53.1561 288.2565 0000647  72.5298 257.3178 15.87073706  2806
STARLINK-37499          
1 69250U 26117N   26159.25004630 -.02028449  00000+0 -87134-2 0  9997
2 69250  53.1562 288.2429 0000582  80.7306 255.7896 15.87313005  2805
STARLINK-37489          
1 69251U 26117P   26159.25004630 -.02035421  00000+0 -86393-2 0  9992
2 69251  53.1565 288.2240 0000499  82.5106 263.0112 15.87563951  2805
STARLINK-37434          
1 69252U 26117Q   26159.25004630 -.01987486  00000+0 -80503-2 0  9996
2 69252  53.1560 288.1978 0000709  76.9809 280.9631 15.88415085  2730
STARLINK-37368          
1 69253U 26117R   26159.25004630 -.01881207  00000+0 -71411-2 0  9999
2 69253  53.1560 288.1396 0000621  72.8918 313.0960 15.90035582  2808
STARLINK-37517          
1 69254U 26117S   26159.25004630 -.01872214  00000+0 -70211-2 0  9995
2 69254  53.1560 288.1279 0000664  74.3915 317.5000 15.90253407  2802
STARLINK-37378          
1 69255U 26117T   26159.25004630 -.01906015  00000+0 -72250-2 0  9998
2 69255  53.1561 288.1203 0000755  69.4771 325.8022 15.90107677  2721
STARLINK-37396          
1 69256U 26117U   26159.25004630 -.01920975  00000+0 -71455-2 0  9996
2 69256  53.1560 288.0959 0000679  76.9049 329.8792 15.90500879  2802
