OBJECT_NAME,OBJECT_ID,EPOCH,MEAN_MOTION,ECCENTRICITY,INCLINATION,RA_OF_ASC_NODE,ARG_OF_PERICENTER,MEAN_ANOMALY,EPHEMERIS_TYPE,CLASSIFICATION_TYPE,NORAD_CAT_ID,ELEMENT_SET_NO,REV_AT_EPOCH,BSTAR,MEAN_MOTION_DOT,MEAN_MOTION_DDOT
STARLINK-37736,2026-115R,2026-06-08T05:40:30.932832,15.80915312,.00012581,97.2838,176.2257,129.3649,230.7731,0,U,69226,999,327,.10472301E-2,.206197E-2,0
STARLINK-37737,2026-115S,2026-06-08T05:37:38.512992,15.80891053,.00007247,97.2840,176.2276,140.6011,219.5310,0,U,69227,999,327,.75645424E-3,.147737E-2,0
STARLINK-37618,2026-115T,2026-06-08T05:32:23.295552,15.80918735,.0001167,97.2842,176.2327,87.9672,272.1730,0,U,69228,999,327,.11386888E-2,.224734E-2,0
STARLINK-37679,2026-115U,2026-06-08T05:34:30.951552,15.80917988,.00009053,97.2840,176.2307,76.1009,284.0360,0,U,69229,999,327,.11700779E-2,.231095E-2,0
STARLINK-37746,2026-115V,2026-06-08T01:03:15.329088,15.80877797,.00011136,97.2839,176.0276,79.5703,280.5690,0,U,69230,999,324,.24064646E-3,.46329E-3,0
STARLINK-37557,2026-115W,2026-06-08T05:32:10.988736,15.80527381,.0000422,97.2845,176.2335,285.8696,74.2526,0,U,69231,999,327,-.11741925E-2,-.216665E-2,0
STARLINK-37745,2026-115X,2026-06-08T05:26:18.831840,15.80938714,.00009926,97.2840,176.2389,102.2027,257.9352,0,U,69232,999,327,.13929369E-2,.276863E-2,0
STARLINK-37739,2026-115Y,2026-06-08T05:33:18.122400,15.80878674,.0000591,97.2841,176.2324,41.8028,318.3285,0,U,69233,999,327,.84250706E-3,.164792E-2,0
STARLINK-37755,2026-115Z,2026-06-08T06:00:04.000320,15.75206555,.00016678,97.2848,176.2370,105.8747,322.6871,0,U,69234,999,325,-.49660298E-3,-.73622E-3,0
TJS-24,2026-116A,2026-06-08T06:57:59.620896,1.00271261,.00007363,0.0286,245.6488,174.0877,31.7551,0,U,69235,999,14,0,-.216E-5,0
STARLINK-37665,2026-117A,2026-06-08T06:00:04.000320,15.82449470,.00007956,53.1583,288.4856,37.7091,182.2953,0,U,69238,999,273,-.34478246E-2,-.678438E-2,0
STARLINK-37558,2026-117B,2026-06-08T06:00:04.000320,15.82328226,.00010097,53.1582,288.4741,47.6132,177.8862,0,U,69239,999,273,-.25026598E-2,-.499926E-2,0
STARLINK-37680,2026-117C,2026-06-08T06:00:04.000320,15.82730161,.00012366,53.1583,288.4573,71.9830,161.4786,0,U,69240,999,272,-.51251511E-2,-.985861E-2,0
STARLINK-37742,2026-117D,2026-06-08T06:00:04.000320,15.83734915,.00006658,53.1578,288.4382,41.8823,200.9328,0,U,69241,999,273,-.10054467E-1,-.1972494E-1,0
STARLINK-37718,2026-117E,2026-06-08T06:00:04.000320,15.83899738,.00010265,53.1579,288.4240,86.2998,163.2871,0,U,69242,999,272,-.99943752E-2,-.1976182E-1,0
STARLINK-37735,2026-117F,2026-06-08T06:00:04.000320,15.83258809,.00009506,53.1580,288.4212,80.2399,170.6484,0,U,69243,999,273,-.81018067E-2,-.1569209E-1,0
STARLINK-37757,2026-117G,2026-06-08T06:00:04.000320,15.84183113,.00007334,53.1578,288.3950,105.9533,157.4394,0,U,69244,999,273,-.98038194E-2,-.1966398E-1,0
STARLINK-37767,2026-117H,2026-06-08T06:00:04.000320,15.85129559,.00006198,53.1569,288.3489,72.3753,213.3541,0,U,69245,999,273,-.97778765E-2,-.2041212E-1,0
STARLINK-35759,2026-117J,2026-06-08T06:00:04.000320,15.85129084,.00007948,53.1569,288.3404,75.4131,214.2563,0,U,69246,999,278,-.98791473E-2,-.2059495E-1,0
STARLINK-37238,2026-117K,2026-06-08T06:00:04.000320,15.86487751,.00005613,53.1565,288.2967,70.3890,240.2020,0,U,69247,999,273,-.88774364E-2,-.1989474E-1,0
STARLINK-37412,2026-117L,2026-06-08T06:00:04.000320,15.87158398,.00007141,53.1563,288.2624,71.9389,255.3170,0,U,69248,999,280,-.86643109E-2,-.2005295E-1,0
STARLINK-37398,2026-117M,2026-06-08T06:00:04.000320,15.87073706,.00006475,53.1561,288.2565,72.5298,257.3178,0,U,69249,999,280,-.88089157E-2,-.2026666E-1,0
STARLINK-37499,2026-117N,2026-06-08T06:00:04.000320,15.87313005,.00005825,53.1562,288.2429,80.7306,255.7896,0,U,69250,999,280,-.87134295E-2,-.2028449E-1,0
STARLINK-37489,2026-117P,2026-06-08T06:00:04.000320,15.87563951,.00004998,53.1565,288.2240,82.5106,263.0112,0,U,69251,999,280,-.86393138E-2,-.2035421E-1,0
STARLINK-37434,2026-117Q,2026-06-08T06:00:04.000320,15.88415085,.00007099,53.1560,288.1978,76.9809,280.9631,0,U,69252,999,273,-.80503362E-2,-.1987486E-1,0
STARLINK-37368,2026-117R,2026-06-08T06:00:04.000320,15.90035582,.0000621,53.1560,288.1396,72.8918,313.0960,0,U,69253,999,280,-.71411451E-2,-.1881207E-1,0
STARLINK-37517,2026-117S,2026-06-08T06:00:04.000320,15.90253407,.00006643,53.1560,288.1279,74.3915,317.5000,0,U,69254,999,280,-.70210646E-2,-.1872214E-1,0
STARLINK-37378,2026-117T,2026-06-08T06:00:04.000320,15.90107677,.00007552,53.1561,288.1203,69.4771,325.8022,0,U,69255,999,272,-.72249948E-2,-.1906015E-1,0
STARLINK-37396,2026-117U,2026-06-08T06:00:04.000320,15.90500879,.00006791,53.1560,288.0959,76.9049,329.8792,0,U,69256,999,280,-.71455047E-2,-.1920975E-1,0
